43072,IRIDIUM 116,2017,100.4,860.0,+,86.4,Active,1,LEO,USA,USA,Commercial/Government,Communications,Falcon,1 43072U 17083C   25112.92943274  .00000005  00000+0 -51863-5 0  9999,2 43072  86.3958 137.7097 0002341  96.8595 263.2867 14.34217086383939,14.34217086,0.0002341,LEO
43073,IRIDIUM 130,2017,100.4,860.0,+,86.4,Active,1,LEO,USA,USA,Commercial/Government,Communications,Falcon,1 43073U 17083D   25112.68841491 -.00000039  00000+0 -21017-4 0  9996,2 43073  86.3966 138.0444 0002147 103.0408 257.1028 14.34216893383843,14.34216893,0.0002147,LEO
43074,IRIDIUM 151,2017,100.4,860.0,+,86.4,Active,1,LEO,USA,USA,Commercial/Government,Communications,Falcon,1 43074U 17083E   25112.45373966  .00000065  00000+0  16131-4 0  9997,2 43074  86.3955 137.9568 0002450  97.6250 262.5224 14.34217204383831,14.34217204,0.000245,LEO
43075,IRIDIUM 134,2017,100.4,860.0,+,86.4,Active,1,LEO,USA,USA,Commercial/Government,Communications,Falcon,1 43075U 17083F   25112.42202789 -.00000012  00000+0 -11435-4 0  9995,2 43075  86.3962 137.9724 0001994  98.8607 261.2814 14.34217405383794,14.34217405,0.0001994,LEO
43076,IRIDIUM 137,2017,100.4,860.0,+,86.4,Active,1,LEO,USA,USA,Commercial/Government,Communications,Falcon,1 43076U 17083G   25112.43471497  .00000034  00000+0  51000-5 0  9996,2 43076  86.3959 138.0511 0002895  98.4473 261.7051 14.34217595383861,14.34217595,0.0002895,LEO
43077,IRIDIUM 141,2017,100.4,860.0,+,86.4,Active,1,LEO,USA,USA,Commercial/Government,Communications,Falcon,1 43077U 17083H   25112.63767342  .00000169  00000+0  53397-4 0  9995,2 43077  86.3953 137.8209 0002176  86.3313 273.8131 14.34217672383890,14.34217672,0.0002176,LEO
43078,IRIDIUM 153,2017,100.4,860.0,+,86.39,Active,1,LEO,USA,USA,Commercial/Government,Communications,Falcon,1 43078U 17083J   25112.58985410  .00000038  00000+0  66062-5 0  9997,2 43078  86.3918 106.3176 0002033  78.1831 281.9593 14.34217649384990,14.34217649,0.0002033,LEO
43079,IRIDIUM 131,2017,100.4,860.0,+,86.4,Active,1,LEO,USA,USA,Commercial/Government,Communications,Falcon,1 43079U 17083K   25112.13661191 -.00000012  00000+0 -11498-4 0  9992,2 43079  86.3966 138.1883 0002303  88.5175 271.6285 14.34217347383750,14.34217347,0.0002303,LEO
